start=new Date('2022-10-27T00:00:00.000Z').valueOf();
sats=[{"ARG_OF_PERICENTER":"66.5159","SEMIMAJOR_AXIS":"6925.336","CLASSIFICATION_TYPE":"U","SITE":"AFETR","LAUNCH_DATE":"2020-01-29","REV_AT_EPOCH":"15134","TIME_SYSTEM":"UTC","RCS_SIZE":"LARGE","OBJECT_TYPE":"PAYLOAD","RA_OF_ASC_NODE":"28.1499","MEAN_ANOMALY":"293.6005","PERIAPSIS":"546.042","MEAN_MOTION":"15.06403975","MEAN_ELEMENT_THEORY":"SGP4","TLE_LINE2":"2 45078  53.0555  28.1499 0001674  66.5159 293.6005 15.06403975151341","APOAPSIS":"548.361","DECAY_DATE":null,"FILE":"3635100","COUNTRY_CODE":"US","ELEMENT_SET_NO":"999","TLE_LINE1":"1 45078U 20006AL  22299.72544523  .00007562  00000-0  52594-3 0  9996","ECCENTRICITY":"0.00016740","MEAN_MOTION_DOT":"0.00007562","EPHEMERIS_TYPE":"0","GP_ID":"216261720","MEAN_MOTION_DDOT":"0.0000000000000","NORAD_CAT_ID":"45078","EPOCH":"2022-10-26T17:24:38.467872","OBJECT_NAME":"STARLINK-1177","CENTER_NAME":"EARTH","BSTAR":"0.00052594000000","REF_FRAME":"TEME","OBJECT_ID":"2020-006AL","PERIOD":"95.592","INCLINATION":"53.0555"},{"SEMIMAJOR_AXIS":"6925.366","ARG_OF_PERICENTER":"96.2422","CLASSIFICATION_TYPE":"U","SITE":"AFETR","REV_AT_EPOCH":"15132","LAUNCH_DATE":"2020-01-29","TIME_SYSTEM":"UTC","OBJECT_TYPE":"PAYLOAD","RCS_SIZE":"LARGE","RA_OF_ASC_NODE":"28.8364","MEAN_ANOMALY":"263.8756","PERIAPSIS":"546.082","MEAN_MOTION":"15.06394246","TLE_LINE2":"2 45079  53.0580  28.8364 0001659  96.2422 263.8756 15.06394246151324","MEAN_ELEMENT_THEORY":"SGP4","DECAY_DATE":null,"APOAPSIS":"548.380","COUNTRY_CODE":"US","FILE":"3635100","ELEMENT_SET_NO":"999","TLE_LINE1":"1 45079U 20006AM  22299.56968391  .00000392  00000-0  45204-4 0  9997","ECCENTRICITY":"0.00016590","MEAN_MOTION_DDOT":"0.0000000000000","GP_ID":"216261969","EPHEMERIS_TYPE":"0","MEAN_MOTION_DOT":"0.00000392","NORAD_CAT_ID":"45079","OBJECT_NAME":"STARLINK-1149","EPOCH":"2022-10-26T13:40:20.689824","CENTER_NAME":"EARTH","OBJECT_ID":"2020-006AM","PERIOD":"95.593","INCLINATION":"53.0580","BSTAR":"0.00004520400000","REF_FRAME":"TEME"},{"EPOCH":"2022-10-26T13:52:19.915392","OBJECT_NAME":"STARLINK-1153","NORAD_CAT_ID":"45080","REF_FRAME":"TEME","BSTAR":"0.00025899000000","INCLINATION":"53.0563","PERIOD":"95.592","OBJECT_ID":"2020-006AN","CENTER_NAME":"EARTH","ECCENTRICITY":"0.00014750","TLE_LINE1":"1 45080U 20006AN  22299.57800828  .00003578  00000-0  25899-3 0  9996","MEAN_MOTION_DOT":"0.00003578","GP_ID":"216262721","EPHEMERIS_TYPE":"0","MEAN_MOTION_DDOT":"0.0000000000000","ELEMENT_SET_NO":"999","FILE":"3635100","COUNTRY_CODE":"US","MEAN_ELEMENT_THEORY":"SGP4","TLE_LINE2":"2 45080  53.0563  28.8055 0001475  76.8772 283.2382 15.06397291151337","MEAN_MOTION":"15.06397291","DECAY_DATE":null,"APOAPSIS":"548.243","PERIAPSIS":"546.200","MEAN_ANOMALY":"283.2382","LAUNCH_DATE":"2020-01-29","REV_AT_EPOCH":"15133","RCS_SIZE":"LARGE","RA_OF_ASC_NODE":"28.8055","OBJECT_TYPE":"PAYLOAD","TIME_SYSTEM":"UTC","ARG_OF_PERICENTER":"76.8772","SEMIMAJOR_AXIS":"6925.357","SITE":"AFETR","CLASSIFICATION_TYPE":"U"},{"PERIAPSIS":"545.841","MEAN_ANOMALY":"324.3042","APOAPSIS":"548.676","DECAY_DATE":null,"MEAN_ELEMENT_THEORY":"SGP4","TLE_LINE2":"2 45081  53.0562  29.1893 0002047  35.8084 324.3042 15.06385268151328","MEAN_MOTION":"15.06385268","SITE":"AFETR","CLASSIFICATION_TYPE":"U","ARG_OF_PERICENTER":"35.8084","SEMIMAJOR_AXIS":"6925.394","OBJECT_TYPE":"PAYLOAD","RCS_SIZE":"LARGE","RA_OF_ASC_NODE":"29.1893","TIME_SYSTEM":"UTC","LAUNCH_DATE":"2020-01-29","REV_AT_EPOCH":"15132","MEAN_MOTION_DOT":"-0.00000848","EPHEMERIS_TYPE":"0","GP_ID":"216206411","MEAN_MOTION_DDOT":"0.0000000000000","ECCENTRICITY":"0.00020470","TLE_LINE1":"1 45081U 20006AP  22299.48859100 -.00000848  00000-0 -38048-4 0  9994","BSTAR":"-0.00003804800000","REF_FRAME":"TEME","OBJECT_ID":"2020-006AP","PERIOD":"95.593","INCLINATION":"53.0562","CENTER_NAME":"EARTH","EPOCH":"2022-10-26T11:43:34.262400","OBJECT_NAME":"STARLINK-1151","NORAD_CAT_ID":"45081","FILE":"3634846","COUNTRY_CODE":"US","ELEMENT_SET_NO":"999"},{"TIME_SYSTEM":"UTC","OBJECT_TYPE":"PAYLOAD","RCS_SIZE":"LARGE","RA_OF_ASC_NODE":"28.0600","REV_AT_EPOCH":"15135","LAUNCH_DATE":"2020-01-29","CLASSIFICATION_TYPE":"U","SITE":"AFETR","SEMIMAJOR_AXIS":"6925.354","ARG_OF_PERICENTER":"57.8454","DECAY_DATE":null,"APOAPSIS":"548.290","MEAN_MOTION":"15.06398184","TLE_LINE2":"2 45082  53.0551  28.0600 0001547  57.8454 302.2685 15.06398184151352","MEAN_ELEMENT_THEORY":"SGP4","MEAN_ANOMALY":"302.2685","PERIAPSIS":"546.148","ELEMENT_SET_NO":"999","COUNTRY_CODE":"US","FILE":"3635100","CENTER_NAME":"EARTH","PERIOD":"95.592","INCLINATION":"53.0551","OBJECT_ID":"2020-006AQ","BSTAR":"0.00023051000000","REF_FRAME":"TEME","NORAD_CAT_ID":"45082","OBJECT_NAME":"STARLINK-1160","EPOCH":"2022-10-26T17:49:48.171360","MEAN_MOTION_DDOT":"0.0000000000000","GP_ID":"216261221","EPHEMERIS_TYPE":"0","MEAN_MOTION_DOT":"0.00003153","TLE_LINE1":"1 45082U 20006AQ  22299.74291865  .00003153  00000-0  23051-3 0  9999","ECCENTRICITY":"0.00015470"},{"OBJECT_ID":"2020-006AR","PERIOD":"95.593","INCLINATION":"53.0553","REF_FRAME":"TEME","BSTAR":"0.00019041000000","CENTER_NAME":"EARTH","EPOCH":"2022-10-26T18:36:16.691616","OBJECT_NAME":"STARLINK-1190","NORAD_CAT_ID":"45083","EPHEMERIS_TYPE":"0","GP_ID":"216261471","MEAN_MOTION_DDOT":"0.0000000000000","MEAN_MOTION_DOT":"0.00002555","ECCENTRICITY":"0.00011440","TLE_LINE1":"1 45083U 20006AR  22299.77519319  .00002555  00000-0  19041-3 0  9999","ELEMENT_SET_NO":"999","COUNTRY_CODE":"US","FILE":"3635100","DECAY_DATE":null,"APOAPSIS":"548.028","TLE_LINE2":"2 45083  53.0553  47.9169 0001144  91.7924 268.3196 15.06392623151088","MEAN_ELEMENT_THEORY":"SGP4","MEAN_MOTION":"15.06392623","PERIAPSIS":"546.444","MEAN_ANOMALY":"268.3196","RA_OF_ASC_NODE":"47.9169","RCS_SIZE":"LARGE","OBJECT_TYPE":"PAYLOAD","TIME_SYSTEM":"UTC","REV_AT_EPOCH":"15108","LAUNCH_DATE":"2020-01-29","SITE":"AFETR","CLASSIFICATION_TYPE":"U","SEMIMAJOR_AXIS":"6925.371","ARG_OF_PERICENTER":"91.7924"},{"REF_FRAME":"TEME","BSTAR":"0.00036937000000","INCLINATION":"53.0546","PERIOD":"95.592","OBJECT_ID":"2020-006AS","CENTER_NAME":"EARTH","OBJECT_NAME":"STARLINK-1173","EPOCH":"2022-10-26T13:23:08.042208","NORAD_CAT_ID":"45084","MEAN_MOTION_DOT":"0.00005225","MEAN_MOTION_DDOT":"0.0000000000000","GP_ID":"216262221","EPHEMERIS_TYPE":"0","ECCENTRICITY":"0.00017940","TLE_LINE1":"1 45084U 20006AS  22299.55773197  .00005225  00000-0  36937-3 0  9992","ELEMENT_SET_NO":"999","FILE":"3635100","COUNTRY_CODE":"US","APOAPSIS":"548.454","DECAY_DATE":null,"MEAN_ELEMENT_THEORY":"SGP4","TLE_LINE2":"2 45084  53.0546   8.9128 0001794  52.4749 307.6403 15.06400796151611","MEAN_MOTION":"15.06400796","PERIAPSIS":"545.969","MEAN_ANOMALY":"307.6403","RA_OF_ASC_NODE":"8.9128","RCS_SIZE":"LARGE","OBJECT_TYPE":"PAYLOAD","TIME_SYSTEM":"UTC","LAUNCH_DATE":"2020-01-29","REV_AT_EPOCH":"15161","SITE":"AFETR","CLASSIFICATION_TYPE":"U","ARG_OF_PERICENTER":"52.4749","SEMIMAJOR_AXIS":"6925.346"},{"REV_AT_EPOCH":"15162","LAUNCH_DATE":"2020-01-29","TIME_SYSTEM":"UTC","OBJECT_TYPE":"PAYLOAD","RCS_SIZE":"LARGE","RA_OF_ASC_NODE":"8.6231","SEMIMAJOR_AXIS":"6925.604","ARG_OF_PERICENTER":"58.4164","CLASSIFICATION_TYPE":"U","SITE":"AFETR","MEAN_MOTION":"15.06316715","TLE_LINE2":"2 45085  53.0561   8.6231 0001903  58.4164 301.7010 15.06316715151627","MEAN_ELEMENT_THEORY":"SGP4","DECAY_DATE":null,"APOAPSIS":"548.787","MEAN_ANOMALY":"301.7010","PERIAPSIS":"546.151","ELEMENT_SET_NO":"999","COUNTRY_CODE":"US","FILE":"3635100","NORAD_CAT_ID":"45085","OBJECT_NAME":"STARLINK-1179","EPOCH":"2022-10-26T14:53:23.015328","CENTER_NAME":"EARTH","PERIOD":"95.597","OBJECT_ID":"2020-006AT","INCLINATION":"53.0561","REF_FRAME":"TEME","BSTAR":"0.00132680000000","TLE_LINE1":"1 45085U 20006AT  22299.62040527  .00019492  00000-0  13268-2 0  9997","ECCENTRICITY":"0.00019030","EPHEMERIS_TYPE":"0","GP_ID":"216262464","MEAN_MOTION_DDOT":"0.0000000000000","MEAN_MOTION_DOT":"0.00019492"},{"ARG_OF_PERICENTER":"39.0428","SEMIMAJOR_AXIS":"6877.001","CLASSIFICATION_TYPE":"U","SITE":"AFETR","LAUNCH_DATE":"2020-01-29","REV_AT_EPOCH":"15183","TIME_SYSTEM":"UTC","OBJECT_TYPE":"PAYLOAD","RCS_SIZE":"LARGE","RA_OF_ASC_NODE":"346.0356","MEAN_ANOMALY":"321.0912","PERIAPSIS":"495.577","MEAN_MOTION":"15.22313672","MEAN_ELEMENT_THEORY":"SGP4","TLE_LINE2":"2 45086  52.9905 346.0356 0004782  39.0428 321.0912 15.22313672151837","APOAPSIS":"502.154","DECAY_DATE":null,"FILE":"3635100","COUNTRY_CODE":"US","ELEMENT_SET_NO":"999","TLE_LINE1":"1 45086U 20006AU  22299.85317492  .00032701  00000-0  14086-2 0  9998","ECCENTRICITY":"0.00047820","MEAN_MOTION_DOT":"0.00032701","GP_ID":"216261721","EPHEMERIS_TYPE":"0","MEAN_MOTION_DDOT":"0.0000000000000","NORAD_CAT_ID":"45086","OBJECT_NAME":"STARLINK-1181","EPOCH":"2022-10-26T20:28:34.313088","CENTER_NAME":"EARTH","REF_FRAME":"TEME","BSTAR":"0.00140860000000","OBJECT_ID":"2020-006AU","PERIOD":"94.593","INCLINATION":"52.9905"},{"ELEMENT_SET_NO":"999","FILE":"3635100","COUNTRY_CODE":"US","NORAD_CAT_ID":"45087","EPOCH":"2022-10-26T16:07:40.550304","OBJECT_NAME":"STARLINK-1185","CENTER_NAME":"EARTH","BSTAR":"0.00086631000000","REF_FRAME":"TEME","OBJECT_ID":"2020-006AV","PERIOD":"95.591","INCLINATION":"53.0561","TLE_LINE1":"1 45087U 20006AV  22299.67199711  .00012650  00000-0  86631-3 0  9998","ECCENTRICITY":"0.00017930","MEAN_MOTION_DOT":"0.00012650","GP_ID":"216261970","MEAN_MOTION_DDOT":"0.0000000000000","EPHEMERIS_TYPE":"0","LAUNCH_DATE":"2020-01-29","REV_AT_EPOCH":"15163","TIME_SYSTEM":"UTC","OBJECT_TYPE":"PAYLOAD","RCS_SIZE":"LARGE","RA_OF_ASC_NODE":"8.3831","ARG_OF_PERICENTER":"49.8862","SEMIMAJOR_AXIS":"6925.310","CLASSIFICATION_TYPE":"U","SITE":"AFETR","MEAN_MOTION":"15.06412635","MEAN_ELEMENT_THEORY":"SGP4","TLE_LINE2":"2 45087  53.0561   8.3831 0001793  49.8862 310.2284 15.06412635151635","DECAY_DATE":null,"APOAPSIS":"548.417","MEAN_ANOMALY":"310.2284","PERIAPSIS":"545.933"}];
